STARLINK-2022           
1 47643U 21012Z   23281.54238523  .00011728  00000+0  80523-3 0  9997
2 47643  53.0544  56.2196 0001812  86.3882 273.7314 15.06385811147156
